H1 CPF  1  DGF 2022 01 24 10  5242 larets     NONE      
H2   304206 5557    27944 2022 01 14 00 00 00 2022 01 21 00 00 00    30 1 1  0 0 0
H5  0.0650
H9
10 0 59599  72000.000000  0        273619.364      -6898518.001       1518027.992
10 0 59599  72030.000000  0        227406.622      -6945093.835       1299761.046
10 0 59599  72060.000000  0        180775.878      -6984440.397       1080169.403
10 0 59599  72090.000000  0        133806.059      -7016517.105        859477.008
10 0 59599  72120.000000  0         86576.579      -7041291.141        637908.881
10 0 59599  72150.000000  0         39167.229      -7058737.488        415690.874
10 0 59599  72180.000000  0         -8341.941      -7068838.951        193049.442
10 0 59599  72210.000000  0        -55870.738      -7071586.168        -29788.601
10 0 59599  72240.000000  0       -103338.941      -7066977.621       -252596.310
10 0 59599  72270.000000  0       -150666.420      -7055019.624       -475146.852
10 0 59599  72300.000000  0       -197773.248      -7035726.316       -697213.739
10 0 59599  72330.000000  0       -244579.822      -7009119.633       -918571.060
10 0 59599  72360.000000  0       -291006.971      -6975229.281      -1138993.715
10 0 59599  72390.000000  0       -336976.076      -6934092.694      -1358257.646
10 0 59599  72420.000000  0       -382409.180      -6885754.990      -1576140.067
10 0 59599  72450.000000  0       -427229.102      -6830268.915      -1792419.692
10 0 59599  72480.000000  0       -471359.546      -6767694.778      -2006876.961
10 0 59599  72510.000000  0       -514725.213      -6698100.381      -2219294.268
10 0 59599  72540.000000  0       -557251.908      -6621560.931      -2429456.180
10 0 59599  72570.000000  0       -598866.650      -6538158.960      -2637149.657
10 0 59599  72600.000000  0       -639497.773      -6447984.220      -2842164.268
10 0 59599  72630.000000  0       -679075.031      -6351133.580      -3044292.404
10 0 59599  72660.000000  0       -717529.701      -6247710.918      -3243329.487
10 0 59599  72690.000000  0       -754794.678      -6137826.991      -3439074.178
10 0 59599  72720.000000  0       -790804.575      -6021599.315      -3631328.575
10 0 59599  72750.000000  0       -825495.815      -5899152.021      -3819898.412
10 0 59599  72780.000000  0       -858806.722      -5770615.716      -4004593.249
10 0 59599  72810.000000  0       -890677.608      -5636127.338      -4185226.657
10 0 59599  72840.000000  0       -921050.863      -5495829.996      -4361616.400
10 0 59599  72870.000000  0       -949871.032      -5349872.816      -4533584.615
10 0 59599  72900.000000  0       -977084.902      -5198410.771      -4700957.980
10 0 59599  72930.000000  0      -1002641.571      -5041604.513      -4863567.888
10 0 59599  72960.000000  0      -1026492.530      -4879620.192      -5021250.602
10 0 59599  72990.000000  0      -1048591.724      -4712629.280      -5173847.416
10 0 59599  73020.000000  0      -1068895.627      -4540808.378      -5321204.807
10 0 59599  73050.000000  0      -1087363.303      -4364339.029      -5463174.578
10 0 59599  73080.000000  0      -1103956.461      -4183407.519      -5599614.001
10 0 59599  73110.000000  0      -1118639.518      -3998204.681      -5730385.950
10 0 59599  73140.000000  0      -1131379.651      -3808925.685      -5855359.030
10 0 59599  73170.000000  0      -1142146.841      -3615769.839      -5974407.701
10 0 59599  73200.000000  0      -1150913.925      -3418940.369      -6087412.397
10 0 59599  73230.000000  0      -1157656.635      -3218644.208      -6194259.635
10 0 59599  73260.000000  0      -1162353.635      -3015091.776      -6294842.120
10 0 59599  73290.000000  0      -1164986.560      -2808496.760      -6389058.842
10 0 59599  73320.000000  0      -1165540.040      -2599075.892      -6476815.172
10 0 59599  73350.000000  0      -1164001.734      -2387048.725      -6558022.945
10 0 59599  73380.000000  0      -1160362.349      -2172637.405      -6632600.543
10 0 59599  73410.000000  0      -1154615.659      -1956066.439      -6700472.968
10 0 59599  73440.000000  0      -1146758.524      -1737562.472      -6761571.914
10 0 59599  73470.000000  0      -1136790.900      -1517354.046      -6815835.827
10 0 59599  73500.000000  0      -1124715.847      -1295671.373      -6863209.964
10 0 59599  73530.000000  0      -1110539.533      -1072746.094      -6903646.446
10 0 59599  73560.000000  0      -1094271.238       -848811.044      -6937104.297
10 0 59599  73590.000000  0      -1075923.341       -624100.014      -6963549.489
10 0 59599  73620.000000  0      -1055511.320       -398847.515      -6982954.966
10 0 59599  73650.000000  0      -1033053.732       -173288.538      -6995300.672
10 0 59599  73680.000000  0      -1008572.204         52341.679      -7000573.571
10 0 59599  73710.000000  0       -982091.409        277807.887      -6998767.663
10 0 59599  73740.000000  0       -953639.046        502875.069      -6989883.997
10 0 59599  73770.000000  0       -923245.809        727308.679      -6973930.669
10 0 59599  73800.000000  0       -890945.358        950874.880      -6950922.820
10 0 59599  73830.000000  0       -856774.285       1173340.785      -6920882.619
10 0 59599  73860.000000  0       -820772.074       1394474.683      -6883839.249
10 0 59599  73890.000000  0       -782981.060       1614046.282      -6839828.889
10 0 59599  73920.000000  0       -743446.385       1831826.937      -6788894.683
10 0 59599  73950.000000  0       -702215.945       2047589.894      -6731086.709
10 0 59599  73980.000000  0       -659340.336       2261110.514      -6666461.935
10 0 59599  74010.000000  0       -614872.799       2472166.510      -6595084.178
10 0 59599  74040.000000  0       -568869.154       2680538.176      -6517024.044
10 0 59599  74070.000000  0       -521387.743       2886008.616      -6432358.877
10 0 59599  74100.000000  0       -472489.353       3088363.970      -6341172.685
10 0 59599  74130.000000  0       -422237.150       3287393.643      -6243556.070
10 0 59599  74160.000000  0       -370696.599       3482890.518      -6139606.145
10 0 59599  74190.000000  0       -317935.387       3674651.175      -6029426.446
10 0 59599  74220.000000  0       -264023.341       3862476.105      -5913126.843
10 0 59599  74250.000000  0       -209032.342       4046169.917      -5790823.444
10 0 59599  74280.000000  0       -153036.238       4225541.554      -5662638.492
10 0 59599  74310.000000  0        -96110.753       4400404.491      -5528700.251
10 0 59599  74340.000000  0        -38333.391       4570576.945      -5389142.891
10 0 59599  74370.000000  0         20216.660       4735882.064      -5244106.364
10 0 59599  74400.000000  0         79458.628       4896148.125      -5093736.274
10 0 59599  74430.000000  0        139310.261       5051208.718      -4938183.738
10 0 59599  74460.000000  0        199687.931       5200902.934      -4777605.248
10 0 59599  74490.000000  0        260506.746       5345075.538      -4612162.517
10 0 59599  74520.000000  0        321680.654       5483577.144      -4442022.325
10 0 59599  74550.000000  0        383122.562       5616264.377      -4267356.360
10 0 59599  74580.000000  0        444744.449       5743000.039      -4088341.050
10 0 59599  74610.000000  0        506457.479       5863653.258      -3905157.390
10 0 59599  74640.000000  0        568172.124       5978099.636      -3717990.769
10 0 59599  74670.000000  0        629798.283       6086221.391      -3527030.781
10 0 59599  74700.000000  0        691245.401       6187907.495      -3332471.044
10 0 59599  74730.000000  0        752422.597       6283053.797      -3134509.000
10 0 59599  74760.000000  0        813238.784       6371563.148      -2933345.720
10 0 59599  74790.000000  0        873602.796       6453345.509      -2729185.698
10 0 59599  74820.000000  0        933423.517       6528318.058      -2522236.648
10 0 59599  74850.000000  0        992610.003       6596405.287      -2312709.281
10 0 59599  74880.000000  0       1051071.611       6657539.092      -2100817.101
10 0 59599  74910.000000  0       1108718.130       6711658.847      -1886776.171
10 0 59599  74940.000000  0       1165459.902       6758711.483      -1670804.901
10 0 59599  74970.000000  0       1221207.955       6798651.546      -1453123.811
10 0 59599  75000.000000  0       1275874.128       6831441.253      -1233955.307
10 0 59599  75030.000000  0       1329371.202       6857050.536      -1013523.441
10 0 59599  75060.000000  0       1381613.022       6875457.076       -792053.677
10 0 59599  75090.000000  0       1432514.622       6886646.329       -569772.654
10 0 59599  75120.000000  0       1481992.354       6890611.544       -346907.944
10 0 59599  75150.000000  0       1529964.002       6887353.764       -123687.810
10 0 59599  75180.000000  0       1576348.911       6876881.832         99659.033
10 0 59599  75210.000000  0       1621068.097       6859212.371        322903.663
10 0 59599  75240.000000  0       1664044.371       6834369.771        545817.192
10 0 59599  75270.000000  0       1705202.449       6802386.156        768171.013
10 0 59599  75300.000000  0       1744469.069       6763301.349        989737.040
10 0 59599  75330.000000  0       1781773.099       6717162.819       1210287.950
10 0 59599  75360.000000  0       1817045.645       6664025.631       1429597.432
10 0 59599  75390.000000  0       1850220.162       6603952.374       1647440.423
10 0 59599  75420.000000  0       1881232.548       6537013.089       1863593.348
10 0 59599  75450.000000  0       1910021.249       6463285.184       2077834.364
10 0 59599  75480.000000  0       1936527.356       6382853.341       2289943.589
10 0 59599  75510.000000  0       1960694.691       6295809.419       2499703.336
10 0 59599  75540.000000  0       1982469.903       6202252.341       2706898.350
10 0 59599  75570.000000  0       2001802.555       6102287.982       2911316.034
99
